SL-3 R/B                
1 19046U 88032B   26070.18092489  .00006120  00000+0  28575-3 0  9995
2 19046  97.5196  53.4266 0024533 225.9547 133.9668 15.19929646 52337
SL-16 R/B               
1 19120U 88039B   26070.17817196  .00000025  00000+0  34600-4 0  9999
2 19120  71.0136  65.3998 0022859 332.1830  27.8071 14.19615588958598
COSMOS 1953             
1 19210U 88050A   26070.19676776  .00009071  00000+0  32463-3 0  9995
2 19210  82.5103 156.7313 0012566 117.7753 242.4762 15.28556007 38019
SL-8 R/B                
1 19257U 88053B   26070.18784848  .00000273  00000+0  97004-4 0  9996
2 19257  74.0458 109.7047 0021441 288.7708 141.6890 14.38916722976817
COSMOS 1975             
1 19573U 88093A   26070.16545528  .00007058  00000+0  25598-3 0  9995
2 19573  82.5181 116.2036 0012278 158.4381 201.7378 15.28093792 19634
SL-14 R/B               
1 19574U 88093B   26069.94060151  .00000733  00000+0  81471-4 0  9990
2 19574  82.5307  40.8692 0021676  37.5450  16.4344 14.85658280  1200
SL-16 R/B               
1 19650U 88102B   26069.96445380  .00000307  00000+0  17922-3 0  9995
2 19650  71.0000 148.8156 0014067 359.5727   0.5382 14.16152908927070
INTERCOSMOS 24          
1 20261U 89080A   26070.15284190  .00000821  00000+0  24466-3 0  9996
2 20261  82.6024 103.4514 1186681 289.4208  58.2533 12.59560258666981
SL-14 R/B               
1 20262U 89080C   26070.23624822  .00000665  00000+0  19544-3 0  9993
2 20262  82.5975 172.1938 1230624 181.2155 178.5874 12.50495902660348
DELTA 1 R/B             
1 20323U 89089B   26070.13830861  .00000390  00000+0  10485-3 0  9991
2 20323  97.0705 277.3466 0070539 117.4858 243.3534 14.50664231895944
ARIANE 40 R/B           
1 20443U 90005H   26070.13386146  .00000304  00000+0  11031-3 0  9999
2 20443  98.3080 130.7523 0009949 194.2151 165.8760 14.39871501893011
DELTA 2 R/B(1)          
1 20453U 90008B   26069.97855484  .00065568  00000+0  76201-3 0  9992
2 20453  35.6037 166.3944 0084997 270.6184  88.4813 15.56171847926338
