CCSDS_OMM_VERS = 2.0
CREATION_DATE  = 
ORIGINATOR     = 

OBJECT_NAME    = SL-3 R/B
OBJECT_ID      = 1988-032B
CENTER_NAME    = EARTH
REF_FRAME      = TEME
TIME_SYSTEM    = UTC
MEAN_ELEMENT_THEORY = SGP/SGP4

EPOCH          = 2026-03-11T04:20:31.910496
MEAN_MOTION    = 15.19929646
ECCENTRICITY   = .0024533
INCLINATION    = 97.5196
RA_OF_ASC_NODE = 53.4266
ARG_OF_PERICENTER = 225.9547
MEAN_ANOMALY   = 133.9668

EPHEMERIS_TYPE = 0
CLASSIFICATION_TYPE = U
NORAD_CAT_ID   = 19046
ELEMENT_SET_NO = 999
REV_AT_EPOCH   = 5233
BSTAR          = .28575E-3
MEAN_MOTION_DOT = .612E-4
MEAN_MOTION_DDOT = 0

CCSDS_OMM_VERS = 2.0
CREATION_DATE  = 
ORIGINATOR     = 

OBJECT_NAME    = SL-16 R/B
OBJECT_ID      = 1988-039B
CENTER_NAME    = EARTH
REF_FRAME      = TEME
TIME_SYSTEM    = UTC
MEAN_ELEMENT_THEORY = SGP/SGP4

EPOCH          = 2026-03-11T04:16:34.057344
MEAN_MOTION    = 14.19615588
ECCENTRICITY   = .0022859
INCLINATION    = 71.0136
RA_OF_ASC_NODE = 65.3998
ARG_OF_PERICENTER = 332.1830
MEAN_ANOMALY   = 27.8071

EPHEMERIS_TYPE = 0
CLASSIFICATION_TYPE = U
NORAD_CAT_ID   = 19120
ELEMENT_SET_NO = 999
REV_AT_EPOCH   = 95859
BSTAR          = .346E-4
MEAN_MOTION_DOT = .25E-6
MEAN_MOTION_DDOT = 0

CCSDS_OMM_VERS = 2.0
CREATION_DATE  = 
ORIGINATOR     = 

OBJECT_NAME    = COSMOS 1953
OBJECT_ID      = 1988-050A
CENTER_NAME    = EARTH
REF_FRAME      = TEME
TIME_SYSTEM    = UTC
MEAN_ELEMENT_THEORY = SGP/SGP4

EPOCH          = 2026-03-11T04:43:20.734464
MEAN_MOTION    = 15.28556007
ECCENTRICITY   = .0012566
INCLINATION    = 82.5103
RA_OF_ASC_NODE = 156.7313
ARG_OF_PERICENTER = 117.7753
MEAN_ANOMALY   = 242.4762

EPHEMERIS_TYPE = 0
CLASSIFICATION_TYPE = U
NORAD_CAT_ID   = 19210
ELEMENT_SET_NO = 999
REV_AT_EPOCH   = 3801
BSTAR          = .32463E-3
MEAN_MOTION_DOT = .9071E-4
MEAN_MOTION_DDOT = 0

CCSDS_OMM_VERS = 2.0
CREATION_DATE  = 
ORIGINATOR     = 

OBJECT_NAME    = SL-8 R/B
OBJECT_ID      = 1988-053B
CENTER_NAME    = EARTH
REF_FRAME      = TEME
TIME_SYSTEM    = UTC
MEAN_ELEMENT_THEORY = SGP/SGP4

EPOCH          = 2026-03-11T04:30:30.108672
MEAN_MOTION    = 14.38916722
ECCENTRICITY   = .0021441
INCLINATION    = 74.0458
RA_OF_ASC_NODE = 109.7047
ARG_OF_PERICENTER = 288.7708
MEAN_ANOMALY   = 141.6890

EPHEMERIS_TYPE = 0
CLASSIFICATION_TYPE = U
NORAD_CAT_ID   = 19257
ELEMENT_SET_NO = 999
REV_AT_EPOCH   = 97681
BSTAR          = .97004E-4
MEAN_MOTION_DOT = .273E-5
MEAN_MOTION_DDOT = 0

CCSDS_OMM_VERS = 2.0
CREATION_DATE  = 
ORIGINATOR     = 

OBJECT_NAME    = COSMOS 1975
OBJECT_ID      = 1988-093A
CENTER_NAME    = EARTH
REF_FRAME      = TEME
TIME_SYSTEM    = UTC
MEAN_ELEMENT_THEORY = SGP/SGP4

EPOCH          = 2026-03-11T03:58:15.336192
MEAN_MOTION    = 15.28093792
ECCENTRICITY   = .0012278
INCLINATION    = 82.5181
RA_OF_ASC_NODE = 116.2036
ARG_OF_PERICENTER = 158.4381
MEAN_ANOMALY   = 201.7378

EPHEMERIS_TYPE = 0
CLASSIFICATION_TYPE = U
NORAD_CAT_ID   = 19573
ELEMENT_SET_NO = 999
REV_AT_EPOCH   = 1963
BSTAR          = .25598E-3
MEAN_MOTION_DOT = .7058E-4
MEAN_MOTION_DDOT = 0

CCSDS_OMM_VERS = 2.0
CREATION_DATE  = 
ORIGINATOR     = 

OBJECT_NAME    = SL-14 R/B
OBJECT_ID      = 1988-093B
CENTER_NAME    = EARTH
REF_FRAME      = TEME
TIME_SYSTEM    = UTC
MEAN_ELEMENT_THEORY = SGP/SGP4

EPOCH          = 2026-03-10T22:34:27.970464
MEAN_MOTION    = 14.85658280
ECCENTRICITY   = .0021676
INCLINATION    = 82.5307
RA_OF_ASC_NODE = 40.8692
ARG_OF_PERICENTER = 37.5450
MEAN_ANOMALY   = 16.4344

EPHEMERIS_TYPE = 0
CLASSIFICATION_TYPE = U
NORAD_CAT_ID   = 19574
ELEMENT_SET_NO = 999
REV_AT_EPOCH   = 120
BSTAR          = .81471E-4
MEAN_MOTION_DOT = .733E-5
MEAN_MOTION_DDOT = 0

CCSDS_OMM_VERS = 2.0
CREATION_DATE  = 
ORIGINATOR     = 

OBJECT_NAME    = SL-16 R/B
OBJECT_ID      = 1988-102B
CENTER_NAME    = EARTH
REF_FRAME      = TEME
TIME_SYSTEM    = UTC
MEAN_ELEMENT_THEORY = SGP/SGP4

EPOCH          = 2026-03-10T23:08:48.808320
MEAN_MOTION    = 14.16152908
ECCENTRICITY   = .0014067
INCLINATION    = 71.0000
RA_OF_ASC_NODE = 148.8156
ARG_OF_PERICENTER = 359.5727
MEAN_ANOMALY   = 0.5382

EPHEMERIS_TYPE = 0
CLASSIFICATION_TYPE = U
NORAD_CAT_ID   = 19650
ELEMENT_SET_NO = 999
REV_AT_EPOCH   = 92707
BSTAR          = .17922E-3
MEAN_MOTION_DOT = .307E-5
MEAN_MOTION_DDOT = 0

CCSDS_OMM_VERS = 2.0
CREATION_DATE  = 
ORIGINATOR     = 

OBJECT_NAME    = INTERCOSMOS 24
OBJECT_ID      = 1989-080A
CENTER_NAME    = EARTH
REF_FRAME      = TEME
TIME_SYSTEM    = UTC
MEAN_ELEMENT_THEORY = SGP/SGP4

EPOCH          = 2026-03-11T03:40:05.540160
MEAN_MOTION    = 12.59560258
ECCENTRICITY   = .1186681
INCLINATION    = 82.6024
RA_OF_ASC_NODE = 103.4514
ARG_OF_PERICENTER = 289.4208
MEAN_ANOMALY   = 58.2533

EPHEMERIS_TYPE = 0
CLASSIFICATION_TYPE = U
NORAD_CAT_ID   = 20261
ELEMENT_SET_NO = 999
REV_AT_EPOCH   = 66698
BSTAR          = .24466E-3
MEAN_MOTION_DOT = .821E-5
MEAN_MOTION_DDOT = 0

CCSDS_OMM_VERS = 2.0
CREATION_DATE  = 
ORIGINATOR     = 

OBJECT_NAME    = SL-14 R/B
OBJECT_ID      = 1989-080C
CENTER_NAME    = EARTH
REF_FRAME      = TEME
TIME_SYSTEM    = UTC
MEAN_ELEMENT_THEORY = SGP/SGP4

EPOCH          = 2026-03-11T05:40:11.846208
MEAN_MOTION    = 12.50495902
ECCENTRICITY   = .1230624
INCLINATION    = 82.5975
RA_OF_ASC_NODE = 172.1938
ARG_OF_PERICENTER = 181.2155
MEAN_ANOMALY   = 178.5874

EPHEMERIS_TYPE = 0
CLASSIFICATION_TYPE = U
NORAD_CAT_ID   = 20262
ELEMENT_SET_NO = 999
REV_AT_EPOCH   = 66034
BSTAR          = .19544E-3
MEAN_MOTION_DOT = .665E-5
MEAN_MOTION_DDOT = 0

CCSDS_OMM_VERS = 2.0
CREATION_DATE  = 
ORIGINATOR     = 

OBJECT_NAME    = DELTA 1 R/B
OBJECT_ID      = 1989-089B
CENTER_NAME    = EARTH
REF_FRAME      = TEME
TIME_SYSTEM    = UTC
MEAN_ELEMENT_THEORY = SGP/SGP4

EPOCH          = 2026-03-11T03:19:09.863904
MEAN_MOTION    = 14.50664231
ECCENTRICITY   = .0070539
INCLINATION    = 97.0705
RA_OF_ASC_NODE = 277.3466
ARG_OF_PERICENTER = 117.4858
MEAN_ANOMALY   = 243.3534

EPHEMERIS_TYPE = 0
CLASSIFICATION_TYPE = U
NORAD_CAT_ID   = 20323
ELEMENT_SET_NO = 999
REV_AT_EPOCH   = 89594
BSTAR          = .10485E-3
MEAN_MOTION_DOT = .39E-5
MEAN_MOTION_DDOT = 0

CCSDS_OMM_VERS = 2.0
CREATION_DATE  = 
ORIGINATOR     = 

OBJECT_NAME    = ARIANE 40 R/B
OBJECT_ID      = 1990-005H
CENTER_NAME    = EARTH
REF_FRAME      = TEME
TIME_SYSTEM    = UTC
MEAN_ELEMENT_THEORY = SGP/SGP4

EPOCH          = 2026-03-11T03:12:45.630144
MEAN_MOTION    = 14.39871501
ECCENTRICITY   = .0009949
INCLINATION    = 98.3080
RA_OF_ASC_NODE = 130.7523
ARG_OF_PERICENTER = 194.2151
MEAN_ANOMALY   = 165.8760

EPHEMERIS_TYPE = 0
CLASSIFICATION_TYPE = U
NORAD_CAT_ID   = 20443
ELEMENT_SET_NO = 999
REV_AT_EPOCH   = 89301
BSTAR          = .11031E-3
MEAN_MOTION_DOT = .304E-5
MEAN_MOTION_DDOT = 0

CCSDS_OMM_VERS = 2.0
CREATION_DATE  = 
ORIGINATOR     = 

OBJECT_NAME    = DELTA 2 R/B(1)
OBJECT_ID      = 1990-008B
CENTER_NAME    = EARTH
REF_FRAME      = TEME
TIME_SYSTEM    = UTC
MEAN_ELEMENT_THEORY = SGP/SGP4

EPOCH          = 2026-03-10T23:29:07.138176
MEAN_MOTION    = 15.56171847
ECCENTRICITY   = .0084997
INCLINATION    = 35.6037
RA_OF_ASC_NODE = 166.3944
ARG_OF_PERICENTER = 270.6184
MEAN_ANOMALY   = 88.4813

EPHEMERIS_TYPE = 0
CLASSIFICATION_TYPE = U
NORAD_CAT_ID   = 20453
ELEMENT_SET_NO = 999
REV_AT_EPOCH   = 92633
BSTAR          = .76201E-3
MEAN_MOTION_DOT = .65568E-3
MEAN_MOTION_DDOT = 0

